[{"OBJECT_NAME":"GAOFEN-11 05","OBJECT_ID":"2024-130A","EPOCH":"2026-03-09T22:37:47.360064","MEAN_MOTION":15.23784242,"ECCENTRICITY":0.00077059,"INCLINATION":97.4051,"RA_OF_ASC_NODE":148.5891,"ARG_OF_PERICENTER":100.8064,"MEAN_ANOMALY":259.4041,"EPHEMERIS_TYPE":0,"CLASSIFICATION_TYPE":"U","NORAD_CAT_ID":60249,"ELEMENT_SET_NO":999,"REV_AT_EPOCH":7035,"BSTAR":0.00034401659,"MEAN_MOTION_DOT":8.217e-5,"MEAN_MOTION_DDOT":0},{"OBJECT_NAME":"ZORKIY-2M-VPE","OBJECT_ID":"2025-313E","EPOCH":"2026-03-09T22:36:53.941536","MEAN_MOTION":15.22760121,"ECCENTRICITY":0.0009586,"INCLINATION":97.4008,"RA_OF_ASC_NODE":145.3388,"ARG_OF_PERICENTER":340.9586,"MEAN_ANOMALY":19.1291,"EPHEMERIS_TYPE":0,"CLASSIFICATION_TYPE":"U","NORAD_CAT_ID":67252,"ELEMENT_SET_NO":999,"REV_AT_EPOCH":1086,"BSTAR":0.00040752318,"MEAN_MOTION_DOT":9.461e-5,"MEAN_MOTION_DDOT":0}]
